[{"OBJECT_NAME":"STARLINK-31031","OBJECT_ID":"2024-002G","EPOCH":"2026-03-09T18:07:51.563424","MEAN_MOTION":15.30199192,"ECCENTRICITY":8.669e-5,"INCLINATION":53.1592,"RA_OF_ASC_NODE":229.7606,"ARG_OF_PERICENTER":72.8998,"MEAN_ANOMALY":287.2098,"EPHEMERIS_TYPE":0,"CLASSIFICATION_TYPE":"U","NORAD_CAT_ID":58711,"ELEMENT_SET_NO":999,"REV_AT_EPOCH":12202,"BSTAR":6.3620048e-5,"MEAN_MOTION_DOT":1.526e-5,"MEAN_MOTION_DDOT":0},{"OBJECT_NAME":"GEOSCAN 6 (RS92S6)","OBJECT_ID":"2025-155D","EPOCH":"2026-03-09T21:52:39.201312","MEAN_MOTION":15.27985277,"ECCENTRICITY":0.00087677,"INCLINATION":97.4466,"RA_OF_ASC_NODE":37.2933,"ARG_OF_PERICENTER":153.7679,"MEAN_ANOMALY":206.4006,"EPHEMERIS_TYPE":0,"CLASSIFICATION_TYPE":"U","NORAD_CAT_ID":64879,"ELEMENT_SET_NO":999,"REV_AT_EPOCH":6559,"BSTAR":0.00053762354,"MEAN_MOTION_DOT":0.00014633,"MEAN_MOTION_DDOT":0}]
